ALOS (DAICHI)           
1 28931U 06002A   25351.73419158  .00001110  00000+0  19545-3 0  9994
2 28931  98.1098 303.1864 0001361 113.5739 246.5610 14.69501788 61443
H-2A R/B                
1 28932U 06002B   25356.82687502  .00009724  00000+0  50879-3 0  9994
2 28932  98.2323 132.4008 0054834 142.2339 218.2759 15.14759907 82797
RESURS-DK 1             
1 29228U 06021A   25356.62031485  .00002709  00000+0  16260-3 0  9997
2 29228  69.9337  76.3031 0006862 250.1947 109.8479 15.12212397 75870
CZ-4B R/B               
1 29507U 06046C   25357.06645236  .00005743  00000+0  29846-3 0  9993
2 29507  97.5715  37.1765 0034184 170.5195 189.6691 15.15968615 48432
CZ-2C R/B               
1 31114U 07010B   25357.21613761  .00000149  00000+0  87290-4 0  9990
2 31114  98.3975 109.3397 0059538 155.6204 204.7810 14.20213883968869
COSMO-SKYMED 1          
1 31598U 07023A   25357.29068862  .00003299  00000+0  30057-3 0  9991
2 31598  97.8840 182.7596 0001428  79.8006 280.3375 14.95842337  3486
COSMOS 2428             
1 31792U 07029A   25357.21643657  .00000193  00000+0  12942-3 0  9999
2 31792  70.9367   3.8827 0004260   8.9487 351.1709 14.12893936953292
SL-16 R/B               
1 31793U 07029B   25357.21168198  .00000279  00000+0  16949-3 0  9998
2 31793  70.9762 333.1440 0001871 263.1277 183.8184 14.14817705954558
KORONAS-FOTON           
1 33504U 09003A   25356.94726146  .00010782  00000+0  25647-3 0  9991
2 33504  82.4309 355.5265 0013386  76.6797 283.5941 15.41389993933916
CZ-2C R/B               
1 37731U 11030B   25357.12454911  .00001320  00000+0  17390-3 0  9993
2 37731  97.8430 311.0022 0051454 238.8490 131.0051 14.80932500778764
H-2A R/B                
1 38341U 12025E   25356.88365427  .00003067  00000+0  28493-3 0  9997
2 38341  98.4610 312.8963 0044437 202.3976 157.5303 14.94504845736747
SHIJIAN-16 (SJ-16)      
1 39358U 13057A   25357.33101189  .00000494  00000+0  51510-4 0  9994
2 39358  74.9733 329.6138 0017915 295.1856  64.7474 14.92007645660118
